[{"OBJECT_NAME":"STARLINK-35840","OBJECT_ID":"2025-280P","EPOCH":"2026-03-09T23:27:17.172576","MEAN_MOTION":14.98341894,"ECCENTRICITY":0.00027132,"INCLINATION":70.0018,"RA_OF_ASC_NODE":333.5414,"ARG_OF_PERICENTER":269.2016,"MEAN_ANOMALY":90.8832,"EPHEMERIS_TYPE":0,"CLASSIFICATION_TYPE":"U","NORAD_CAT_ID":66834,"ELEMENT_SET_NO":999,"REV_AT_EPOCH":1612,"BSTAR":0.0005359238,"MEAN_MOTION_DOT":6.309e-5,"MEAN_MOTION_DDOT":0},{"OBJECT_NAME":"CZ-6A R\/B","OBJECT_ID":"2024-126D","EPOCH":"2026-03-09T19:23:06.789408","MEAN_MOTION":15.13279149,"ECCENTRICITY":0.00704729,"INCLINATION":97.7886,"RA_OF_ASC_NODE":97.6113,"ARG_OF_PERICENTER":100.2752,"MEAN_ANOMALY":260.6434,"EPHEMERIS_TYPE":0,"CLASSIFICATION_TYPE":"U","NORAD_CAT_ID":60214,"ELEMENT_SET_NO":999,"REV_AT_EPOCH":9240,"BSTAR":0.00030839807,"MEAN_MOTION_DOT":5.76e-5,"MEAN_MOTION_DDOT":0}]
